OBJECT_NAME,OBJECT_ID,EPOCH,MEAN_MOTION,ECCENTRICITY,INCLINATION,RA_OF_ASC_NODE,ARG_OF_PERICENTER,MEAN_ANOMALY,EPHEMERIS_TYPE,CLASSIFICATION_TYPE,NORAD_CAT_ID,ELEMENT_SET_NO,REV_AT_EPOCH,BSTAR,MEAN_MOTION_DOT,MEAN_MOTION_DDOT
STARLINK-31667,2024-080J,2026-07-05T18:01:16.648032,15.27552656,.00010593,43.0047,87.2627,257.5968,102.4765,0,U,59609,999,12263,-.17657642E-3,-.5114E-4,0
STARLINK-31729,2024-080K,2026-07-06T04:40:12.559584,15.27570661,.00012811,43.0022,85.4358,251.3286,108.7427,0,U,59610,999,12269,-.72639564E-4,-.226E-4,0
STARLINK-31448,2024-080L,2026-07-06T13:42:57.472992,15.27568712,.00015,43.0037,83.1072,263.4790,96.5891,0,U,59611,999,12275,.25844E-3,.6854E-4,0
STARLINK-31748,2024-080M,2026-07-06T02:16:06.922848,15.27558076,.00016427,43.0016,85.5490,302.1919,57.8773,0,U,59612,999,12385,-.33889332E-3,-.957E-4,0
STARLINK-31746,2024-080N,2026-07-06T00:25:57.879264,15.27553889,.00004325,42.9998,93.5832,221.1122,138.9697,0,U,59613,999,12258,-.81180906E-4,-.2493E-4,0
STARLINK-31762,2024-080P,2026-07-05T03:21:54.475776,15.27553584,.0000961,43.0042,94.7444,281.2442,78.8302,0,U,59614,999,12249,-.69861E-4,-.2182E-4,0
STARLINK-31768,2024-080R,2026-07-06T02:50:35.177280,15.27549681,.00013428,43.0045,89.1850,295.0486,65.0226,0,U,59616,999,12264,-.14614925E-3,-.4278E-4,0
STARLINK-31769,2024-080S,2026-07-05T02:09:55.547136,15.27574677,.0001209,43.0024,95.2256,281.1795,78.8921,0,U,59617,999,12248,.55324E-4,.126E-4,0
STARLINK-31784,2024-080T,2026-07-06T04:48:04.474656,15.27548525,.00022815,43.0053,92.3949,243.6986,116.3632,0,U,59618,999,12261,.1824792E-4,.239E-5,0
STARLINK-31777,2024-080U,2026-07-06T03:19:28.864992,15.27558725,.0001071,43.0030,92.7935,275.0545,85.0184,0,U,59619,999,12260,-.67163505E-4,-.2108E-4,0
STARLINK-31758,2024-080W,2026-07-06T01:59:27.832128,15.27555131,.00009419,42.9990,85.4548,273.1942,86.8802,0,U,59621,999,12268,-.43258184E-4,-.1451E-4,0
STARLINK-31774,2024-080X,2026-07-05T23:44:48.647616,15.27557623,.00012251,43.0029,86.4746,244.9993,115.0731,0,U,59622,999,12266,-.10034183E-3,-.302E-4,0
STARLINK-31763,2024-080Y,2026-07-06T01:47:52.470240,15.27555223,.00012755,43.0017,89.7153,272.1259,87.9446,0,U,59623,999,12263,-.85320625E-4,-.2607E-4,0
STARLINK-31749,2024-082A,2026-07-06T11:34:58.679040,15.27580054,.0001165,42.9996,188.5982,273.8763,86.1955,0,U,59631,999,12318,.20083E-3,.5268E-4,0
STARLINK-31781,2024-082B,2026-07-06T01:17:26.899584,15.27563906,.00013351,43.0014,177.2402,264.1036,95.9663,0,U,59632,999,12311,-.58741601E-4,-.1877E-4,0
STARLINK-31541,2024-082C,2026-07-06T00:52:04.193760,15.27565775,.00011269,43.0023,184.3338,267.4873,92.5850,0,U,59633,999,12318,-.59302965E-4,-.1893E-4,0
STARLINK-31797,2024-082D,2026-07-06T16:45:12.307968,15.27562341,.000095,42.9995,187.6324,275.7739,84.3004,0,U,59634,999,12305,-.54323E-4,-.1756E-4,0
STARLINK-31798,2024-082E,2026-07-06T09:40:40.857888,15.27562691,.00015088,43.0033,189.7242,276.1448,83.9231,0,U,59635,999,12296,.2264133E-5,-.2E-5,0
STARLINK-31802,2024-082F,2026-07-06T17:20:21.782112,15.27561155,.0001151,43.0034,187.8192,265.4381,94.6340,0,U,59636,999,12301,-.67576E-4,-.212E-4,0
STARLINK-31791,2024-082G,2026-07-06T08:37:45.951168,15.27561167,.00014942,43.0006,189.3906,277.0427,83.0255,0,U,59637,999,12296,-.77875674E-4,-.2403E-4,0
STARLINK-31727,2024-082H,2026-07-06T11:20:23.255232,15.27565672,.0001333,43.0019,189.3780,260.3759,99.6942,0,U,59638,999,12302,-.342E-4,-.1203E-4,0
STARLINK-31807,2024-082J,2026-07-06T17:25:54.633792,15.27569591,.0001997,43.0036,187.8459,256.5775,103.4854,0,U,59639,999,12301,-.97895E-4,-.2954E-4,0
STARLINK-31806,2024-082K,2026-07-06T17:00:00.019584,15.27582243,.0001495,43.0009,187.7120,273.7118,86.3562,0,U,59640,999,12301,-.45609E-4,-.1517E-4,0
STARLINK-31804,2024-082L,2026-07-06T00:41:25.927584,15.27559990,.0000832,43.0001,191.2091,296.6017,63.4749,0,U,59641,999,12291,-.96817935E-4,-.2923E-4,0
STARLINK-31660,2024-082M,2026-07-06T06:11:38.417856,15.27582530,.00012318,43.0017,149.8207,273.5069,86.5642,0,U,59642,999,12360,.12588164E-3,.3204E-4,0
STARLINK-31800,2024-082N,2026-07-06T17:16:39.503424,15.27567716,.000086,43.0009,187.7816,251.9385,108.1373,0,U,59643,999,12311,-.11446E-3,-.3409E-4,0
STARLINK-31789,2024-082P,2026-07-06T16:39:37.501056,15.27555969,.0005564,43.0008,187.6021,259.7960,100.2264,0,U,59644,999,12321,.36325E-3,.9742E-4,0
STARLINK-31795,2024-082Q,2026-07-05T23:54:37.079136,15.27570972,.00011757,43.0020,133.1068,265.3608,94.7109,0,U,59645,999,12357,-.17399318E-3,-.5045E-4,0
STARLINK-31796,2024-082R,2026-07-06T01:07:19.189632,15.27566000,.00012229,42.9986,191.3423,265.9366,94.1346,0,U,59646,999,12307,-.88908616E-4,-.2707E-4,0
STARLINK-31801,2024-082S,2026-07-06T02:00:59.369472,15.27565804,.00013142,43.0005,191.6193,260.9243,99.1459,0,U,59647,999,12296,-.59173986E-4,-.1889E-4,0
STARLINK-31787,2024-082V,2026-07-06T09:03:40.425408,15.27559037,.00015663,43.0023,189.5246,275.1160,84.9513,0,U,59650,999,12316,-.9561983E-4,-.2891E-4,0
STARLINK-31277,2024-082W,2026-07-06T17:05:35.356128,15.27554317,.0000867,42.9983,187.7388,77.5495,282.5453,0,U,59651,999,12321,-.13327E-3,-.3924E-4,0
STARLINK-31799,2024-082X,2026-07-06T10:08:28.092768,15.27555579,.0001482,43.0028,178.5981,249.5492,110.5201,0,U,59652,999,12314,-.13179E-3,-.3884E-4,0
STARLINK-31764,2024-082Y,2026-07-06T08:43:18.991200,15.27565627,.00016266,43.0030,189.4175,269.9238,90.1427,0,U,59653,999,12316,.13100736E-4,.98E-6,0
STARLINK-31589,2024-084A,2026-07-06T02:16:40.722528,15.27568949,.00003513,42.9985,92.9403,202.6346,157.4490,0,U,59654,999,12250,-.18932892E-3,-.5466E-4,0
STARLINK-31665,2024-084B,2026-07-06T02:28:27.621408,15.27562729,.0001505,43.0018,89.5493,260.4322,99.6359,0,U,59655,999,12252,-.72401113E-4,-.2253E-4,0
STARLINK-31912,2024-084C,2026-07-06T02:57:22.562784,15.27565729,.00012371,43.0009,93.1567,258.1208,101.9505,0,U,59656,999,12248,.2788952E-3,.7417E-4,0
STARLINK-31904,2024-084D,2026-07-05T23:34:16.319712,15.27561513,.00014732,43.0025,93.8176,283.3143,76.7544,0,U,59657,999,12246,-.10506653E-3,-.3151E-4,0
STARLINK-31858,2024-084E,2026-07-06T00:31:24.941280,15.27548759,.00012738,43.0002,93.2488,263.2011,96.8695,0,U,59658,999,12247,-.78870491E-4,-.243E-4,0
STARLINK-31881,2024-084F,2026-07-06T03:29:20.199552,15.27556457,.00011268,43.0001,88.9945,271.5515,88.5208,0,U,59659,999,12253,-.87352962E-4,-.2663E-4,0
STARLINK-31885,2024-084G,2026-07-06T02:39:34.524864,15.27555633,.00014899,42.9996,89.5987,216.6642,143.4108,0,U,59660,999,12252,-.14703194E-3,-.4303E-4,0
STARLINK-31880,2024-084H,2026-07-06T02:19:14.181024,15.27564867,.00011099,42.9981,89.4984,281.7828,78.2900,0,U,59661,999,12252,-.31985649E-3,-.9049E-4,0
STARLINK-31886,2024-084J,2026-07-06T02:51:51.622272,15.27542985,.00007965,42.9982,93.1269,86.4165,273.6778,0,U,59662,999,12248,-.13681432E-3,-.402E-4,0
STARLINK-31909,2024-084K,2026-07-06T03:24:56.016864,15.27564934,.00004548,43.0015,92.4757,218.9331,141.1488,0,U,59663,999,12249,-.54370603E-4,-.1757E-4,0
STARLINK-31910,2024-084L,2026-07-06T02:11:06.727776,15.27579481,.00011999,43.0011,92.9033,273.8155,86.2560,0,U,59664,999,12248,.20118594E-4,.292E-5,0
STARLINK-31902,2024-084N,2026-07-06T03:02:54.813984,15.27571536,.00011994,43.0039,93.1809,275.4075,84.6640,0,U,59666,999,12248,-.51218338E-4,-.1671E-4,0
STARLINK-31913,2024-084P,2026-07-06T02:13:40.452384,15.27548815,.00010763,42.9996,89.4624,266.3349,93.7379,0,U,59667,999,12252,.51522818E-4,.1155E-4,0
STARLINK-31866,2024-084Q,2026-07-06T01:44:46.618656,15.27550519,.00007002,42.9989,85.8302,280.0117,80.0656,0,U,59668,999,12256,-.12683946E-3,-.3747E-4,0
STARLINK-31917,2024-084R,2026-07-04T11:23:04.296192,15.27584536,.0000623,43.0019,102.2663,273.9508,86.1272,0,U,59669,999,12223,.10086E-3,.2515E-4,0
STARLINK-31860,2024-084S,2026-07-06T02:34:02.030880,15.27557917,.00010555,43.0023,89.5687,261.8361,98.2370,0,U,59670,999,12250,-.11757208E-3,-.3494E-4,0
STARLINK-31854,2024-084T,2026-07-06T01:30:50.102496,15.27542782,.00005881,42.9980,60.2577,269.5720,90.5065,0,U,59671,999,12283,-.19703351E-3,-.5673E-4,0
STARLINK-31842,2024-084U,2026-07-06T02:45:06.113376,15.27576324,.00009107,43.0052,89.6259,287.0274,73.0478,0,U,59672,999,12252,-.53275129E-4,-.1727E-4,0
STARLINK-31871,2024-084V,2026-07-04T11:12:02.263104,15.27533617,.0000951,43.0004,102.2107,274.4040,85.6703,0,U,59673,999,12223,-.18185E-3,-.5255E-4,0
STARLINK-31875,2024-084W,2026-07-06T02:22:53.666400,15.27575809,.00014695,43.0039,89.5118,276.1904,83.8780,0,U,59674,999,12252,-.78642067E-4,-.2425E-4,0
STARLINK-31877,2024-084X,2026-07-06T02:48:09.420480,15.27544729,.00001463,43.0011,93.0983,265.5507,94.5327,0,U,59675,999,12248,-.1581937E-3,-.4607E-4,0
STARLINK-31884,2024-084Y,2026-07-06T02:31:28.688160,15.27565572,.00013753,42.9997,93.0338,268.5308,91.5386,0,U,59676,999,12248,.25065105E-2,.69332E-3,0
STARLINK-32108,2024-086A,2026-07-06T04:38:38.587488,15.27545489,.00013607,43.0038,114.2575,261.2837,98.7860,0,U,59682,999,12218,-.16989734E-3,-.4929E-4,0
STARLINK-32080,2024-086B,2026-07-06T05:10:05.774304,15.27559417,.00001808,42.9971,114.4275,121.5109,238.5760,0,U,59683,999,12220,-.61885026E-4,-.1963E-4,0
STARLINK-32091,2024-086C,2026-07-06T03:15:37.243008,15.27557026,.00004664,42.9990,103.4793,210.3778,149.7047,0,U,59684,999,12232,-.13294415E-3,-.3915E-4,0
STARLINK-32085,2024-086D,2026-07-05T18:55:50.645568,15.27579291,.00010256,43.0015,112.9555,283.0552,77.0185,0,U,59685,999,12217,-.43038039E-4,-.1446E-4,0
STARLINK-32100,2024-086E,2026-07-06T03:17:37.908384,15.27564761,.00012908,43.0043,92.8636,267.2296,92.8408,0,U,59686,999,12243,-.6947297E-4,-.2172E-4,0
STARLINK-32089,2024-086F,2026-07-06T03:58:38.012736,15.27548146,.00018728,43.0042,110.6312,265.9717,94.0921,0,U,59687,999,12223,-.1803961E-3,-.5218E-4,0
STARLINK-32103,2024-086G,2026-07-06T03:58:52.453632,15.27563057,.00011339,43.0003,100.2461,288.0219,72.0510,0,U,59688,999,12235,-.12675167E-3,-.3746E-4,0
